[{"OBJECT_NAME":"HELIOS 1B","OBJECT_ID":"1999-064A","EPOCH":"2026-03-23T05:34:59.780640","MEAN_MOTION":14.87749474,"ECCENTRICITY":0.00020739,"INCLINATION":98.168,"RA_OF_ASC_NODE":344.8731,"ARG_OF_PERICENTER":56.5102,"MEAN_ANOMALY":303.6311,"EPHEMERIS_TYPE":0,"CLASSIFICATION_TYPE":"U","NORAD_CAT_ID":25977,"ELEMENT_SET_NO":999,"REV_AT_EPOCH":68727,"BSTAR":0.00020866534,"MEAN_MOTION_DOT":1.845e-5,"MEAN_MOTION_DDOT":0},{"OBJECT_NAME":"TERRA","OBJECT_ID":"1999-068A","EPOCH":"2026-03-23T06:31:39.103968","MEAN_MOTION":14.61028787,"ECCENTRICITY":0.0003421,"INCLINATION":97.9565,"RA_OF_ASC_NODE":135.186,"ARG_OF_PERICENTER":122.6037,"MEAN_ANOMALY":280.012,"EPHEMERIS_TYPE":0,"CLASSIFICATION_TYPE":"U","NORAD_CAT_ID":25994,"ELEMENT_SET_NO":999,"REV_AT_EPOCH":39706,"BSTAR":0.00011211204,"MEAN_MOTION_DOT":5.06e-6,"MEAN_MOTION_DDOT":0},{"OBJECT_NAME":"SL-16 R/B","OBJECT_ID":"2000-006B","EPOCH":"2026-03-23T05:22:58.047744","MEAN_MOTION":14.1582403,"ECCENTRICITY":0.00160658,"INCLINATION":71.0008,"RA_OF_ASC_NODE":69.3757,"ARG_OF_PERICENTER":168.8474,"MEAN_ANOMALY":191.3009,"EPHEMERIS_TYPE":0,"CLASSIFICATION_TYPE":"U","NORAD_CAT_ID":26070,"ELEMENT_SET_NO":999,"REV_AT_EPOCH":35047,"BSTAR":7.8218838e-5,"MEAN_MOTION_DOT":1.06e-6,"MEAN_MOTION_DDOT":0},{"OBJECT_NAME":"TITAN 4B R/B","OBJECT_ID":"2000-047B","EPOCH":"2026-03-23T05:06:06.921504","MEAN_MOTION":15.09689149,"ECCENTRICITY":0.00395458,"INCLINATION":67.9916,"RA_OF_ASC_NODE":2.4823,"ARG_OF_PERICENTER":19.5381,"MEAN_ANOMALY":340.7273,"EPHEMERIS_TYPE":0,"CLASSIFICATION_TYPE":"U","NORAD_CAT_ID":26474,"ELEMENT_SET_NO":999,"REV_AT_EPOCH":39495,"BSTAR":0.00031886684,"MEAN_MOTION_DOT":5.11e-5,"MEAN_MOTION_DDOT":0},{"OBJECT_NAME":"ENVISAT","OBJECT_ID":"2002-009A","EPOCH":"2026-03-23T03:51:32.447808","MEAN_MOTION":14.39041488,"ECCENTRICITY":0.00012572,"INCLINATION":98.3751,"RA_OF_ASC_NODE":35.4392,"ARG_OF_PERICENTER":81.6169,"MEAN_ANOMALY":288.8612,"EPHEMERIS_TYPE":0,"CLASSIFICATION_TYPE":"U","NORAD_CAT_ID":27386,"ELEMENT_SET_NO":999,"REV_AT_EPOCH":26111,"BSTAR":5.7137407e-5,"MEAN_MOTION_DOT":1.34e-6,"MEAN_MOTION_DDOT":0},{"OBJECT_NAME":"IDEFIX & ARIANE 42P R/B","OBJECT_ID":"2002-021B","EPOCH":"2026-03-23T01:26:49.354944","MEAN_MOTION":14.31034913,"ECCENTRICITY":0.0012338,"INCLINATION":98.5886,"RA_OF_ASC_NODE":20.5079,"ARG_OF_PERICENTER":143.4786,"MEAN_ANOMALY":216.7241,"EPHEMERIS_TYPE":0,"CLASSIFICATION_TYPE":"U","NORAD_CAT_ID":27422,"ELEMENT_SET_NO":999,"REV_AT_EPOCH":24593,"BSTAR":0.00012906169,"MEAN_MOTION_DOT":2.96e-6,"MEAN_MOTION_DDOT":0},{"OBJECT_NAME":"AQUA","OBJECT_ID":"2002-022A","EPOCH":"2026-03-23T05:53:08.536416","MEAN_MOTION":14.62007319,"ECCENTRICITY":9.156e-5,"INCLINATION":98.4198,"RA_OF_ASC_NODE":49.8594,"ARG_OF_PERICENTER":116.323,"MEAN_ANOMALY":354.8654,"EPHEMERIS_TYPE":0,"CLASSIFICATION_TYPE":"U","NORAD_CAT_ID":27424,"ELEMENT_SET_NO":999,"REV_AT_EPOCH":27071,"BSTAR":0.00022813379,"MEAN_MOTION_DOT":1.095e-5,"MEAN_MOTION_DDOT":0},{"OBJECT_NAME":"CZ-4B R/B","OBJECT_ID":"2002-024C","EPOCH":"2026-03-23T03:36:29.853792","MEAN_MOTION":14.14549996,"ECCENTRICITY":0.00497868,"INCLINATION":98.881,"RA_OF_ASC_NODE":135.4875,"ARG_OF_PERICENTER":345.9995,"MEAN_ANOMALY":34.5163,"EPHEMERIS_TYPE":0,"CLASSIFICATION_TYPE":"U","NORAD_CAT_ID":27432,"ELEMENT_SET_NO":999,"REV_AT_EPOCH":23114,"BSTAR":3.8961816e-5,"MEAN_MOTION_DOT":3.1e-7,"MEAN_MOTION_DDOT":0},{"OBJECT_NAME":"MIDORI II (ADEOS-II)","OBJECT_ID":"2002-056A","EPOCH":"2026-03-23T04:11:22.358976","MEAN_MOTION":14.29294987,"ECCENTRICITY":0.00010277,"INCLINATION":98.7793,"RA_OF_ASC_NODE":40.7473,"ARG_OF_PERICENTER":27.6921,"MEAN_ANOMALY":332.4315,"EPHEMERIS_TYPE":0,"CLASSIFICATION_TYPE":"U","NORAD_CAT_ID":27597,"ELEMENT_SET_NO":999,"REV_AT_EPOCH":21222,"BSTAR":0.00014769446,"MEAN_MOTION_DOT":3.3e-6,"MEAN_MOTION_DDOT":0},{"OBJECT_NAME":"H-2A R/B","OBJECT_ID":"2002-056E","EPOCH":"2026-03-22T23:07:57.770112","MEAN_MOTION":14.33769066,"ECCENTRICITY":0.00711826,"INCLINATION":98.3226,"RA_OF_ASC_NODE":41.8259,"ARG_OF_PERICENTER":121.4967,"MEAN_ANOMALY":284.4449,"EPHEMERIS_TYPE":0,"CLASSIFICATION_TYPE":"U","NORAD_CAT_ID":27601,"ELEMENT_SET_NO":999,"REV_AT_EPOCH":21601,"BSTAR":0.00011229684,"MEAN_MOTION_DOT":2.8e-6,"MEAN_MOTION_DDOT":0},{"OBJECT_NAME":"CZ-4B R/B","OBJECT_ID":"2003-049C","EPOCH":"2026-03-22T23:59:18.141792","MEAN_MOTION":14.55031812,"ECCENTRICITY":0.0047925,"INCLINATION":98.6891,"RA_OF_ASC_NODE":77.4278,"ARG_OF_PERICENTER":189.7348,"MEAN_ANOMALY":170.2924,"EPHEMERIS_TYPE":0,"CLASSIFICATION_TYPE":"U","NORAD_CAT_ID":28059,"ELEMENT_SET_NO":999,"REV_AT_EPOCH":18853,"BSTAR":9.3954691e-5,"MEAN_MOTION_DOT":3.59e-6,"MEAN_MOTION_DDOT":0},{"OBJECT_NAME":"CZ-2C R/B","OBJECT_ID":"2004-012C","EPOCH":"2026-03-23T03:52:49.410336","MEAN_MOTION":15.66134257,"ECCENTRICITY":0.00129956,"INCLINATION":97.719,"RA_OF_ASC_NODE":148.7447,"ARG_OF_PERICENTER":254.6258,"MEAN_ANOMALY":105.3565,"EPHEMERIS_TYPE":0,"CLASSIFICATION_TYPE":"U","NORAD_CAT_ID":28222,"ELEMENT_SET_NO":999,"REV_AT_EPOCH":20638,"BSTAR":0.00066163001,"MEAN_MOTION_DOT":0.00068475,"MEAN_MOTION_DDOT":0},{"OBJECT_NAME":"SL-16 R/B","OBJECT_ID":"2004-021B","EPOCH":"2026-03-22T18:01:25.782240","MEAN_MOTION":14.145933,"ECCENTRICITY":0.00046817,"INCLINATION":71.0001,"RA_OF_ASC_NODE":205.082,"ARG_OF_PERICENTER":353.6018,"MEAN_ANOMALY":6.5044,"EPHEMERIS_TYPE":0,"CLASSIFICATION_TYPE":"U","NORAD_CAT_ID":28353,"ELEMENT_SET_NO":999,"REV_AT_EPOCH":12468,"BSTAR":-6.045375e-6,"MEAN_MOTION_DOT":-5.9e-7,"MEAN_MOTION_DDOT":0},{"OBJECT_NAME":"CZ-4B R/B","OBJECT_ID":"2004-035C","EPOCH":"2026-03-23T01:29:13.360416","MEAN_MOTION":15.29292179,"ECCENTRICITY":0.00300337,"INCLINATION":97.3476,"RA_OF_ASC_NODE":116.1447,"ARG_OF_PERICENTER":281.6956,"MEAN_ANOMALY":78.0914,"EPHEMERIS_TYPE":0,"CLASSIFICATION_TYPE":"U","NORAD_CAT_ID":28415,"ELEMENT_SET_NO":999,"REV_AT_EPOCH":18195,"BSTAR":0.00036862575,"MEAN_MOTION_DOT":0.00010544,"MEAN_MOTION_DDOT":0},{"OBJECT_NAME":"CZ-2C R/B","OBJECT_ID":"2004-046B","EPOCH":"2026-03-22T17:42:40.938048","MEAN_MOTION":14.26996419,"ECCENTRICITY":0.01404618,"INCLINATION":98.1978,"RA_OF_ASC_NODE":355.9093,"ARG_OF_PERICENTER":116.0744,"MEAN_ANOMALY":245.4973,"EPHEMERIS_TYPE":0,"CLASSIFICATION_TYPE":"U","NORAD_CAT_ID":28480,"ELEMENT_SET_NO":999,"REV_AT_EPOCH":11036,"BSTAR":6.6983345e-5,"MEAN_MOTION_DOT":1.41e-6,"MEAN_MOTION_DDOT":0},{"OBJECT_NAME":"ARIANE 5 R/B","OBJECT_ID":"2004-049H","EPOCH":"2026-03-23T04:09:56.723616","MEAN_MOTION":14.85289232,"ECCENTRICITY":0.00830877,"INCLINATION":98.2647,"RA_OF_ASC_NODE":251.1373,"ARG_OF_PERICENTER":307.9013,"MEAN_ANOMALY":51.4707,"EPHEMERIS_TYPE":0,"CLASSIFICATION_TYPE":"U","NORAD_CAT_ID":28499,"ELEMENT_SET_NO":999,"REV_AT_EPOCH":14779,"BSTAR":9.9406196e-5,"MEAN_MOTION_DOT":8.42e-6,"MEAN_MOTION_DDOT":0},{"OBJECT_NAME":"CZ-2D R/B","OBJECT_ID":"2005-024B","EPOCH":"2026-03-23T01:04:57.920448","MEAN_MOTION":15.61350624,"ECCENTRICITY":0.00033873,"INCLINATION":97.3588,"RA_OF_ASC_NODE":97.6925,"ARG_OF_PERICENTER":6.9253,"MEAN_ANOMALY":353.2051,"EPHEMERIS_TYPE":0,"CLASSIFICATION_TYPE":"U","NORAD_CAT_ID":28738,"ELEMENT_SET_NO":999,"REV_AT_EPOCH":14186,"BSTAR":0.00062052809,"MEAN_MOTION_DOT":0.00052926,"MEAN_MOTION_DDOT":0}]
